[{"OBJECT_NAME":"YAOGAN-43 01G","OBJECT_ID":"2024-148G","EPOCH":"2026-03-09T10:38:37.087584","MEAN_MOTION":15.28332833,"ECCENTRICITY":0.00073829,"INCLINATION":35.0006,"RA_OF_ASC_NODE":62.0013,"ARG_OF_PERICENTER":306.3543,"MEAN_ANOMALY":53.6492,"EPHEMERIS_TYPE":0,"CLASSIFICATION_TYPE":"U","NORAD_CAT_ID":60464,"ELEMENT_SET_NO":999,"REV_AT_EPOCH":8700,"BSTAR":0.00035872736,"MEAN_MOTION_DOT":0.00010133,"MEAN_MOTION_DDOT":0},{"OBJECT_NAME":"STARLINK-32926","OBJECT_ID":"2025-032W","EPOCH":"2026-03-09T19:42:56.227968","MEAN_MOTION":15.27624608,"ECCENTRICITY":0.00018345,"INCLINATION":43.0004,"RA_OF_ASC_NODE":335.002,"ARG_OF_PERICENTER":348.5664,"MEAN_ANOMALY":11.5146,"EPHEMERIS_TYPE":0,"CLASSIFICATION_TYPE":"U","NORAD_CAT_ID":63025,"ELEMENT_SET_NO":999,"REV_AT_EPOCH":6064,"BSTAR":0.0014343695,"MEAN_MOTION_DOT":0.00039474,"MEAN_MOTION_DDOT":0}]
